[{"OBJECT_NAME":"STARLINK-30895","OBJECT_ID":"2023-180S","EPOCH":"2026-03-09T03:29:16.348704","MEAN_MOTION":15.27575728,"ECCENTRICITY":0.0001198,"INCLINATION":43.0029,"RA_OF_ASC_NODE":55.542,"ARG_OF_PERICENTER":279.4238,"MEAN_ANOMALY":80.6478,"EPHEMERIS_TYPE":0,"CLASSIFICATION_TYPE":"U","NORAD_CAT_ID":58418,"ELEMENT_SET_NO":999,"REV_AT_EPOCH":12743,"BSTAR":1.2293914e-5,"MEAN_MOTION_DOT":7.6e-7,"MEAN_MOTION_DDOT":0},{"OBJECT_NAME":"MESON-1","OBJECT_ID":"2024-043AK","EPOCH":"2026-03-09T21:36:16.481664","MEAN_MOTION":15.29893494,"ECCENTRICITY":0.00095452,"INCLINATION":97.5469,"RA_OF_ASC_NODE":205.2839,"ARG_OF_PERICENTER":227.1432,"MEAN_ANOMALY":132.9007,"EPHEMERIS_TYPE":0,"CLASSIFICATION_TYPE":"U","NORAD_CAT_ID":59131,"ELEMENT_SET_NO":999,"REV_AT_EPOCH":11189,"BSTAR":0.0002974823,"MEAN_MOTION_DOT":8.544e-5,"MEAN_MOTION_DDOT":0}]
